{
  "norad_id": 51860,
  "name": "STARLINK-3559",
  "history": [
    {
      "epoch": "2026-03-28T19:20:06.345600",
      "apogee_km": 540.7513370503002,
      "perigee_km": 538.7362967259578,
      "latitude_deg": -53.15723953718352,
      "longitude_deg": 163.340383999981,
      "semi_major_axis_km": 6917.880816888129,
      "eccentricity": 0.00014564,
      "inclination_deg": 53.216,
      "raan_deg": 283.303,
      "arg_perigee_deg": 97.1672,
      "mean_anomaly_deg": 262.9486,
      "mean_motion_rev_day": 15.0883986
    }
  ]
}